STARLINK-2647           
1 48658U 21044W   26068.40686488 -.00000428  00000+0 -23154-5 0  9993
2 48658  53.1613 115.1599 0001392  82.0945 278.0214 15.30203057263782
EOSSAT-1                
1 55053U 23001AW  26068.73619225  .00007695  00000+0  24844-3 0  9992
2 55053  97.3357 130.2294 0011263 110.3168 249.9285 15.32339828176689
